{
  "norad_id": 52098,
  "name": "STARLINK-3665",
  "history": [
    {
      "epoch": "2026-03-28T03:36:51.234336Z",
      "apogee_km": 540.5949228642685,
      "perigee_km": 538.8653177268516,
      "latitude_deg": 6.297654186029058e-05,
      "longitude_deg": 126.45680356257964,
      "height_km": 540.582644558491,
      "semi_major_axis_km": 6917.867120295559,
      "eccentricity": 0.00012501,
      "inclination_deg": 53.2195,
      "raan_deg": 6.2454,
      "arg_perigee_deg": 87.1133,
      "mean_anomaly_deg": 273.0003,
      "mean_motion_rev_day": 15.08844341
    },
    {
      "epoch": "2026-03-29T03:27:38.168064Z",
      "apogee_km": 540.6774331777378,
      "perigee_km": 538.7598036003192,
      "latitude_deg": -3.459395662234554e-05,
      "longitude_deg": 123.32313792834398,
      "height_km": 540.5356257251445,
      "semi_major_axis_km": 6917.855618389028,
      "eccentricity": 0.0001386,
      "inclination_deg": 53.2197,
      "raan_deg": 1.7867,
      "arg_perigee_deg": 85.2784,
      "mean_anomaly_deg": 274.8366,
      "mean_motion_rev_day": 15.08848104
    },
    {
      "epoch": "2026-03-30T00:07:38.656992Z",
      "apogee_km": 540.7138124003413,
      "perigee_km": 538.7574380219321,
      "latitude_deg": -5.108435456824436e-06,
      "longitude_deg": 168.60776767198692,
      "height_km": 540.5175225574845,
      "semi_major_axis_km": 6917.872625211136,
      "eccentricity": 0.0001414,
      "inclination_deg": 53.2199,
      "raan_deg": 357.9221,
      "arg_perigee_deg": 83.3064,
      "mean_anomaly_deg": 276.8089,
      "mean_motion_rev_day": 15.0884254
    },
    {
      "epoch": "2026-03-30T00:07:38.657856Z",
      "apogee_km": 540.7138124003413,
      "perigee_km": 538.7574380219321,
      "latitude_deg": -5.108435784971838e-06,
      "longitude_deg": 168.6077640621309,
      "height_km": 540.5175225574835,
      "semi_major_axis_km": 6917.872625211136,
      "eccentricity": 0.0001414,
      "inclination_deg": 53.2199,
      "raan_deg": 357.9221,
      "arg_perigee_deg": 83.3064,
      "mean_anomaly_deg": 276.8089,
      "mean_motion_rev_day": 15.0884254
    },
    {
      "epoch": "2026-03-30T11:15:20.208960Z",
      "apogee_km": 540.7113110990904,
      "perigee_km": 538.7305900106885,
      "latitude_deg": 2.876586422460488e-05,
      "longitude_deg": -0.8548591069249559,
      "height_km": 540.5361360700316,
      "semi_major_axis_km": 6917.85795055489,
      "eccentricity": 0.00014316,
      "inclination_deg": 53.2193,
      "raan_deg": 355.8396,
      "arg_perigee_deg": 85.3301,
      "mean_anomaly_deg": 274.7855,
      "mean_motion_rev_day": 15.08847341
    }
  ]
}